start=new Date('2021-11-29T00:00:00.000Z').valueOf();
sats=[{"TIME_SYSTEM":"UTC","INCLINATION":"53.0572","EPOCH":"2021-11-28T18:50:17.212416","OBJECT_NAME":"STARLINK-2689","EPHEMERIS_TYPE":"0","CENTER_NAME":"EARTH","SEMIMAJOR_AXIS":"6925.367","TLE_LINE2":"2 48463  53.0572   3.2841 0001508  58.6244 301.4892 15.06393895 31088","LAUNCH_DATE":"2021-05-09","MEAN_MOTION_DOT":"0.00000556","COUNTRY_CODE":"US","ECCENTRICITY":"0.00015080","MEAN_ANOMALY":"301.4892","RA_OF_ASC_NODE":"3.2841","FILE":"3226391","DECAY_DATE":null,"TLE_LINE1":"1 48463U 21040AM  21332.78492144  .00000556  00000-0  56220-4 0  9997","REV_AT_EPOCH":"3108","ELEMENT_SET_NO":"999","GP_ID":"190687611","PERIAPSIS":"546.188","ARG_OF_PERICENTER":"58.6244","SITE":"AFETR","MEAN_MOTION_DDOT":"0.0000000000000","REF_FRAME":"TEME","BSTAR":"0.00005622000000","RCS_SIZE":"LARGE","OBJECT_TYPE":"PAYLOAD","NORAD_CAT_ID":"48463","PERIOD":"95.593","MEAN_ELEMENT_THEORY":"SGP4","APOAPSIS":"548.277","MEAN_MOTION":"15.06393895","OBJECT_ID":"2021-040AM","CLASSIFICATION_TYPE":"U"},{"TLE_LINE2":"2 48464  53.0578   3.0809 0001693  66.2241 293.8925 15.06391158 31085","SEMIMAJOR_AXIS":"6925.376","CENTER_NAME":"EARTH","EPHEMERIS_TYPE":"0","OBJECT_NAME":"STARLINK-2686","EPOCH":"2021-11-28T19:55:20.607168","TIME_SYSTEM":"UTC","INCLINATION":"53.0578","TLE_LINE1":"1 48464U 21040AN  21332.83009962 -.00000425  00000-0 -96223-5 0  9991","DECAY_DATE":null,"FILE":"3226391","MEAN_ANOMALY":"293.8925","RA_OF_ASC_NODE":"3.0809","COUNTRY_CODE":"US","ECCENTRICITY":"0.00016930","LAUNCH_DATE":"2021-05-09","MEAN_MOTION_DOT":"-0.00000425","RCS_SIZE":"LARGE","BSTAR":"-0.00000962230000","MEAN_MOTION_DDOT":"0.0000000000000","SITE":"AFETR","ARG_OF_PERICENTER":"66.2241","REF_FRAME":"TEME","PERIAPSIS":"546.068","ELEMENT_SET_NO":"999","GP_ID":"190687358","REV_AT_EPOCH":"3108","CLASSIFICATION_TYPE":"U","MEAN_MOTION":"15.06391158","OBJECT_ID":"2021-040AN","APOAPSIS":"548.413","PERIOD":"95.593","MEAN_ELEMENT_THEORY":"SGP4","NORAD_CAT_ID":"48464","OBJECT_TYPE":"PAYLOAD"},{"OBJECT_TYPE":"PAYLOAD","NORAD_CAT_ID":"48465","APOAPSIS":"548.315","PERIOD":"95.592","MEAN_ELEMENT_THEORY":"SGP4","CLASSIFICATION_TYPE":"U","OBJECT_ID":"2021-040AP","MEAN_MOTION":"15.06398689","GP_ID":"190660072","ELEMENT_SET_NO":"999","REV_AT_EPOCH":"3104","REF_FRAME":"TEME","SITE":"AFETR","MEAN_MOTION_DDOT":"0.0000000000000","ARG_OF_PERICENTER":"56.3162","PERIAPSIS":"546.120","RCS_SIZE":"LARGE","BSTAR":"0.00005126700000","COUNTRY_CODE":"US","ECCENTRICITY":"0.00015850","MEAN_MOTION_DOT":"0.00000482","LAUNCH_DATE":"2021-05-09","RA_OF_ASC_NODE":"4.5095","MEAN_ANOMALY":"303.7978","FILE":"3226217","TLE_LINE1":"1 48465U 21040AP  21332.50942470  .00000482  00000-0  51267-4 0  9995","DECAY_DATE":null,"EPOCH":"2021-11-28T12:13:34.294080","OBJECT_NAME":"STARLINK-2681","INCLINATION":"53.0579","TIME_SYSTEM":"UTC","CENTER_NAME":"EARTH","EPHEMERIS_TYPE":"0","TLE_LINE2":"2 48465  53.0579   4.5095 0001585  56.3162 303.7978 15.06398689 31043","SEMIMAJOR_AXIS":"6925.353"},{"RCS_SIZE":"LARGE","BSTAR":"0.00000529340000","SITE":"AFETR","ARG_OF_PERICENTER":"70.9997","MEAN_MOTION_DDOT":"0.0000000000000","REF_FRAME":"TEME","PERIAPSIS":"546.234","ELEMENT_SET_NO":"999","GP_ID":"190687486","REV_AT_EPOCH":"3109","CLASSIFICATION_TYPE":"U","MEAN_MOTION":"15.06395250","OBJECT_ID":"2021-040AQ","APOAPSIS":"548.222","PERIOD":"95.592","MEAN_ELEMENT_THEORY":"SGP4","NORAD_CAT_ID":"48466","OBJECT_TYPE":"PAYLOAD","TLE_LINE2":"2 48466  53.0584   3.0966 0001435  70.9997 289.1148 15.06395250 31095","SEMIMAJOR_AXIS":"6925.363","CENTER_NAME":"EARTH","EPHEMERIS_TYPE":"0","OBJECT_NAME":"STARLINK-2687","EPOCH":"2021-11-28T19:50:01.813632","TIME_SYSTEM":"UTC","INCLINATION":"53.0584","TLE_LINE1":"1 48466U 21040AQ  21332.82640988 -.00000203  00000-0  52934-5 0  9995","DECAY_DATE":null,"FILE":"3226391","MEAN_ANOMALY":"289.1148","RA_OF_ASC_NODE":"3.0966","COUNTRY_CODE":"US","ECCENTRICITY":"0.00014350","LAUNCH_DATE":"2021-05-09","MEAN_MOTION_DOT":"-0.00000203"},{"LAUNCH_DATE":"2021-05-09","MEAN_MOTION_DOT":"-0.00000676","COUNTRY_CODE":"US","ECCENTRICITY":"0.00013080","MEAN_ANOMALY":"308.9802","RA_OF_ASC_NODE":"3.2754","FILE":"3226391","DECAY_DATE":null,"TLE_LINE1":"1 48467U 21040AR  21332.78586381 -.00000676  00000-0 -26467-4 0  9993","TIME_SYSTEM":"UTC","INCLINATION":"53.0567","OBJECT_NAME":"STARLINK-2659","EPOCH":"2021-11-28T18:51:38.633184","EPHEMERIS_TYPE":"0","CENTER_NAME":"EARTH","SEMIMAJOR_AXIS":"6925.354","TLE_LINE2":"2 48467  53.0567   3.2754 0001308  51.1304 308.9802 15.06398336 31080","OBJECT_TYPE":"PAYLOAD","NORAD_CAT_ID":"48467","PERIOD":"95.592","MEAN_ELEMENT_THEORY":"SGP4","APOAPSIS":"548.124","MEAN_MOTION":"15.06398336","OBJECT_ID":"2021-040AR","CLASSIFICATION_TYPE":"U","REV_AT_EPOCH":"3108","ELEMENT_SET_NO":"999","GP_ID":"190687337","PERIAPSIS":"546.313","ARG_OF_PERICENTER":"51.1304","SITE":"AFETR","MEAN_MOTION_DDOT":"0.0000000000000","REF_FRAME":"TEME","BSTAR":"-0.00002646700000","RCS_SIZE":"LARGE"},{"OBJECT_ID":"2021-040AS","MEAN_MOTION":"15.06392857","CLASSIFICATION_TYPE":"U","PERIOD":"95.593","MEAN_ELEMENT_THEORY":"SGP4","APOAPSIS":"548.364","NORAD_CAT_ID":"48468","OBJECT_TYPE":"PAYLOAD","BSTAR":"0.00009334600000","RCS_SIZE":"LARGE","PERIAPSIS":"546.107","REF_FRAME":"TEME","MEAN_MOTION_DDOT":"0.0000000000000","SITE":"AFETR","ARG_OF_PERICENTER":"48.4928","REV_AT_EPOCH":"3104","GP_ID":"190660201","ELEMENT_SET_NO":"999","DECAY_DATE":null,"TLE_LINE1":"1 48468U 21040AS  21332.50205104  .00001109  00000-0  93346-4 0  9995","FILE":"3226217","RA_OF_ASC_NODE":"4.5434","MEAN_ANOMALY":"311.6200","LAUNCH_DATE":"2021-05-09","MEAN_MOTION_DOT":"0.00001109","COUNTRY_CODE":"US","ECCENTRICITY":"0.00016290","SEMIMAJOR_AXIS":"6925.370","TLE_LINE2":"2 48468  53.0565   4.5434 0001629  48.4928 311.6200 15.06392857 31046","EPHEMERIS_TYPE":"0","CENTER_NAME":"EARTH","INCLINATION":"53.0565","TIME_SYSTEM":"UTC","EPOCH":"2021-11-28T12:02:57.209856","OBJECT_NAME":"STARLINK-2685"},{"NORAD_CAT_ID":"48469","OBJECT_TYPE":"PAYLOAD","CLASSIFICATION_TYPE":"U","OBJECT_ID":"2021-040AT","MEAN_MOTION":"15.06407087","APOAPSIS":"548.244","PERIOD":"95.592","MEAN_ELEMENT_THEORY":"SGP4","GP_ID":"190687741","ELEMENT_SET_NO":"999","REV_AT_EPOCH":"3108","RCS_SIZE":"LARGE","BSTAR":"0.00005391100000","REF_FRAME":"TEME","MEAN_MOTION_DDOT":"0.0000000000000","SITE":"AFETR","ARG_OF_PERICENTER":"49.4235","PERIAPSIS":"546.139","RA_OF_ASC_NODE":"3.3013","MEAN_ANOMALY":"310.6886","COUNTRY_CODE":"US","ECCENTRICITY":"0.00015200","MEAN_MOTION_DOT":"0.00000522","LAUNCH_DATE":"2021-05-09","TLE_LINE1":"1 48469U 21040AT  21332.78217531  .00000522  00000-0  53911-4 0  9995","DECAY_DATE":null,"FILE":"3226391","CENTER_NAME":"EARTH","EPHEMERIS_TYPE":"0","EPOCH":"2021-11-28T18:46:19.946784","OBJECT_NAME":"STARLINK-2661","INCLINATION":"53.0562","TIME_SYSTEM":"UTC","TLE_LINE2":"2 48469  53.0562   3.3013 0001520  49.4235 310.6886 15.06407087 31081","SEMIMAJOR_AXIS":"6925.327"},{"ELEMENT_SET_NO":"999","GP_ID":"190662056","REV_AT_EPOCH":"3230","MEAN_MOTION_DDOT":"0.0000000000000","SITE":"AFETR","ARG_OF_PERICENTER":"67.8287","REF_FRAME":"TEME","PERIAPSIS":"546.349","RCS_SIZE":"LARGE","BSTAR":"0.00003588000000","OBJECT_TYPE":"PAYLOAD","NORAD_CAT_ID":"48470","APOAPSIS":"548.090","MEAN_ELEMENT_THEORY":"SGP4","PERIOD":"95.592","CLASSIFICATION_TYPE":"U","MEAN_MOTION":"15.06397970","OBJECT_ID":"2021-040AU","EPOCH":"2021-11-28T10:43:20.277408","OBJECT_NAME":"STARLINK-2675","TIME_SYSTEM":"UTC","INCLINATION":"53.0575","CENTER_NAME":"EARTH","EPHEMERIS_TYPE":"0","TLE_LINE2":"2 48470  53.0575   4.7951 0001257  67.8287 292.2835 15.06397970 32305","SEMIMAJOR_AXIS":"6925.355","COUNTRY_CODE":"US","ECCENTRICITY":"0.00012570","MEAN_MOTION_DOT":"0.00000253","LAUNCH_DATE":"2021-05-09","MEAN_ANOMALY":"292.2835","RA_OF_ASC_NODE":"4.7951","FILE":"3226291","TLE_LINE1":"1 48470U 21040AU  21332.44676247  .00000253  00000-0  35880-4 0  9999","DECAY_DATE":null},{"MEAN_ANOMALY":"305.9629","RA_OF_ASC_NODE":"4.5442","LAUNCH_DATE":"2021-05-09","MEAN_MOTION_DOT":"0.00000346","COUNTRY_CODE":"US","ECCENTRICITY":"0.00015810","DECAY_DATE":null,"TLE_LINE1":"1 48471U 21040AV  21332.50572753  .00000346  00000-0  42120-4 0  9992","FILE":"3226217","EPHEMERIS_TYPE":"0","CENTER_NAME":"EARTH","TIME_SYSTEM":"UTC","INCLINATION":"53.0596","OBJECT_NAME":"STARLINK-2684","EPOCH":"2021-11-28T12:08:14.858592","SEMIMAJOR_AXIS":"6925.336","TLE_LINE2":"2 48471  53.0596   4.5442 0001581  54.1507 305.9629 15.06403972 31038","NORAD_CAT_ID":"48471","OBJECT_TYPE":"PAYLOAD","MEAN_MOTION":"15.06403972","OBJECT_ID":"2021-040AV","CLASSIFICATION_TYPE":"U","MEAN_ELEMENT_THEORY":"SGP4","PERIOD":"95.592","APOAPSIS":"548.296","REV_AT_EPOCH":"3103","ELEMENT_SET_NO":"999","GP_ID":"190659949","BSTAR":"0.00004212000000","RCS_SIZE":"LARGE","PERIAPSIS":"546.106","SITE":"AFETR","MEAN_MOTION_DDOT":"0.0000000000000","ARG_OF_PERICENTER":"54.1507","REF_FRAME":"TEME"},{"RA_OF_ASC_NODE":"3.1291","MEAN_ANOMALY":"290.1996","COUNTRY_CODE":"US","ECCENTRICITY":"0.00015530","LAUNCH_DATE":"2021-05-09","MEAN_MOTION_DOT":"0.00000042","TLE_LINE1":"1 48472U 21040AW  21332.81903978  .00000042  00000-0  21706-4 0  9994","DECAY_DATE":null,"FILE":"3226391","CENTER_NAME":"EARTH","EPHEMERIS_TYPE":"0","EPOCH":"2021-11-28T19:39:25.036992","OBJECT_NAME":"STARLINK-2722","INCLINATION":"53.0538","TIME_SYSTEM":"UTC","TLE_LINE2":"2 48472  53.0538   3.1291 0001553  69.9160 290.1996 15.06397919 31079","SEMIMAJOR_AXIS":"6925.355","NORAD_CAT_ID":"48472","OBJECT_TYPE":"PAYLOAD","CLASSIFICATION_TYPE":"U","OBJECT_ID":"2021-040AW","MEAN_MOTION":"15.06397919","APOAPSIS":"548.295","MEAN_ELEMENT_THEORY":"SGP4","PERIOD":"95.592","GP_ID":"190687359","ELEMENT_SET_NO":"999","REV_AT_EPOCH":"3107","RCS_SIZE":"LARGE","BSTAR":"0.00002170600000","REF_FRAME":"TEME","ARG_OF_PERICENTER":"69.9160","SITE":"AFETR","MEAN_MOTION_DDOT":"0.0000000000000","PERIAPSIS":"546.144"}];
